{"type": "FeatureCollection", "features": [{"type": "Feature", "properties": {"code": "1042", "name": "สายไหม", "name_en": "Sai Mai"}, "geometry": {"type": "MultiPolygon", "coordinates": [[[[100.6836, 13.9115], [100.6922, 13.8982], [100.692, 13.8867], [100.6844, 13.8741], [100.6812, 13.8797], [100.6613, 13.8789], [100.6531, 13.8863], [100.6527, 13.8829], [100.6402, 13.8867], [100.6231, 13.883], [100.6095, 13.8877], [100.6087, 13.8958], [100.6232, 13.9205], [100.6253, 13.9366], [100.64, 13.9342], [100.6399, 13.932], [100.663, 13.9309], [100.6902, 13.9304], [100.6902, 13.9286], [100.6879, 13.923], [100.6876, 13.9176], [100.6836, 13.9115]]]]}}, {"type": "Feature", "properties": {"code": "1043", "name": "คันนายาว", "name_en": "Khan Na Yao"}, "geometry": {"type": "MultiPolygon", "coordinates": [[[[100.6708, 13.8528], [100.6837, 13.8482], [100.6967, 13.8154], [100.705, 13.7975], [100.6752, 13.7811], [100.6735, 13.7964], [100.6629, 13.8102], [100.6616, 13.8309], [100.6573, 13.8356], [100.6486, 13.8339], [100.6497, 13.8463], [100.6587, 13.8478], [100.6633, 13.8561], [100.6753, 13.8565], [100.6708, 13.8528]]]]}}, {"type": "Feature", "properties": {"code": "1040", "name": "บางแค", "name_en": "Bang Khae"}, "geometry": {"type": "MultiPolygon", "coordinates": [[[[100.426, 13.7122], [100.4276, 13.6875], [100.3922, 13.6688], [100.385, 13.6714], [100.3773, 13.7006], [100.3526, 13.7521], [100.4059, 13.7494], [100.4134, 13.7479], [100.4178, 13.7312], [100.4249, 13.7321], [100.426, 13.7122]]]]}}, {"type": "Feature", "properties": {"code": "1041", "name": "หลักสี่", "name_en": "Lak Si"}, "geometry": {"type": "MultiPolygon", "coordinates": [[[[100.5947, 13.8877], [100.5881, 13.8794], [100.5864, 13.8589], [100.5634, 13.8551], [100.5432, 13.8498], [100.5486, 13.8712], [100.5494, 13.8776], [100.5591, 13.9145], [100.5876, 13.8994], [100.5828, 13.8907], [100.5947, 13.8877]]]]}}, {"type": "Feature", "properties": {"code": "1048", "name": "ทวีวัฒนา", "name_en": "Thawi Watthana"}, "geometry": {"type": "MultiPolygon", "coordinates": [[[[100.4065, 13.7601], [100.4059, 13.7494], [100.3526, 13.7521], [100.3593, 13.738], [100.3354, 13.7354], [100.3349, 13.7369], [100.3357, 13.7381], [100.3344, 13.7525], [100.3334, 13.7529], [100.3329, 13.7577], [100.3314, 13.7587], [100.3307, 13.7643], [100.3291, 13.7647], [100.3308, 13.7746], [100.3309, 13.7894], [100.3298, 13.8008], [100.3279, 13.8042], [100.4108, 13.8016], [100.4065, 13.7601]]]]}}, {"type": "Feature", "properties": {"code": "1049", "name": "ทุ่งครุ", "name_en": "Thung Khru"}, "geometry": {"type": "MultiPolygon", "coordinates": [[[[100.5214, 13.6425], [100.5162, 13.6391], [100.5165, 13.636], [100.5174, 13.634], [100.5145, 13.628], [100.5168, 13.6139], [100.5206, 13.609], [100.5209, 13.6054], [100.5139, 13.6029], [100.5117, 13.5975], [100.4993, 13.5953], [100.4989, 13.5923], [100.4945, 13.5878], [100.4818, 13.5935], [100.4811, 13.5972], [100.4773, 13.5992], [100.4776, 13.6016], [100.477, 13.6024], [100.4817, 13.6154], [100.472, 13.6243], [100.4748, 13.6353], [100.4703, 13.6591], [100.4758, 13.6622], [100.4914, 13.6566], [100.493, 13.6605], [100.4969, 13.659], [100.4991, 13.6543], [100.5026, 13.6598], [100.5117, 13.6565], [100.523, 13.6611], [100.5232, 13.6562], [100.5214, 13.6425]]]]}}, {"type": "Feature", "properties": {"code": "1046", "name": "คลองสามวา", "name_en": "Khlong Sam Wa"}, "geometry": {"type": "MultiPolygon", "coordinates": [[[[100.7296, 13.8366], [100.7297, 13.831], [100.7224, 13.8309], [100.7202, 13.8365], [100.7202, 13.8305], [100.7147, 13.8305], [100.7155, 13.8219], [100.6967, 13.8154], [100.6837, 13.8482], [100.6708, 13.8528], [100.6753, 13.8565], [100.6803, 13.8587], [100.6844, 13.8741], [100.692, 13.8867], [100.6922, 13.8982], [100.6836, 13.9115], [100.6876, 13.9176], [100.7298, 13.9178], [100.747, 13.9173], [100.7925, 13.9288], [100.7928, 13.894], [100.7958, 13.8902], [100.7883, 13.8803], [100.7995, 13.8494], [100.7493, 13.822], [100.7433, 13.8354], [100.7296, 13.8366]]]]}}, {"type": "Feature", "properties": {"code": "1047", "name": "บางนา", "name_en": "Bang Na"}, "geometry": {"type": "MultiPolygon", "coordinates": [[[[100.6244, 13.6845], [100.6259, 13.6783], [100.6403, 13.6778], [100.6454, 13.6696], [100.6535, 13.6691], [100.6479, 13.6519], [100.6163, 13.6596], [100.5919, 13.6643], [100.5793, 13.6683], [100.5888, 13.683], [100.6003, 13.6799], [100.6244, 13.6845]]]]}}, {"type": "Feature", "properties": {"code": "1044", "name": "สะพานสูง", "name_en": "Saphan Sung"}, "geometry": {"type": "MultiPolygon", "coordinates": [[[[100.7098, 13.7565], [100.7083, 13.7319], [100.6591, 13.7382], [100.6664, 13.7469], [100.679, 13.7518], [100.6698, 13.7563], [100.6647, 13.7753], [100.705, 13.7975], [100.7163, 13.7781], [100.7066, 13.7568], [100.7098, 13.7565]]]]}}, {"type": "Feature", "properties": {"code": "1045", "name": "วังทองหลาง", "name_en": "Wang Thonglang"}, "geometry": {"type": "MultiPolygon", "coordinates": [[[[100.6026, 13.8003], [100.6057, 13.7952], [100.612, 13.7949], [100.6148, 13.7997], [100.6236, 13.8002], [100.6259, 13.7881], [100.629, 13.7887], [100.6305, 13.7631], [100.6153, 13.7611], [100.6041, 13.751], [100.5947, 13.764], [100.5884, 13.8028], [100.6026, 13.8003]]]]}}, {"type": "Feature", "properties": {"code": "1050", "name": "บางบอน", "name_en": "Bang Bon"}, "geometry": {"type": "MultiPolygon", "coordinates": [[[[100.4468, 13.6826], [100.3774, 13.6208], [100.372, 13.6209], [100.3718, 13.6245], [100.3674, 13.6296], [100.3666, 13.6338], [100.355, 13.6376], [100.3549, 13.6386], [100.3463, 13.6399], [100.3447, 13.6425], [100.3451, 13.6533], [100.3444, 13.6547], [100.385, 13.6714], [100.3922, 13.6688], [100.4276, 13.6875], [100.4377, 13.6936], [100.4468, 13.6826]]]]}}, {"type": "Feature", "properties": {"code": "1020", "name": "บางกอกน้อย", "name_en": "Bangkok Noi"}, "geometry": {"type": "MultiPolygon", "coordinates": [[[[100.4843, 13.7468], [100.4705, 13.7432], [100.4621, 13.7444], [100.4535, 13.7659], [100.4569, 13.7764], [100.4674, 13.7797], [100.466, 13.787], [100.4686, 13.7877], [100.4821, 13.7733], [100.491, 13.762], [100.4894, 13.76], [100.4883, 13.7483], [100.4843, 13.7468]]]]}}, {"type": "Feature", "properties": {"code": "1021", "name": "บางขุนเทียน", "name_en": "Bang Khun Thian"}, "geometry": {"type": "MultiPolygon", "coordinates": [[[[100.4647, 13.6557], [100.4703, 13.6591], [100.4748, 13.6353], [100.472, 13.6243], [100.4817, 13.6154], [100.477, 13.6024], [100.4755, 13.6019], [100.4733, 13.5979], [100.4735, 13.5953], [100.4699, 13.5935], [100.4671, 13.5973], [100.4664, 13.6015], [100.4668, 13.6037], [100.4547, 13.6053], [100.4524, 13.6016], [100.452, 13.5991], [100.4465, 13.5863], [100.4445, 13.553], [100.4463, 13.5407], [100.4541, 13.5024], [100.4579, 13.487], [100.4107, 13.4915], [100.4086, 13.5008], [100.4066, 13.5062], [100.4064, 13.519], [100.4076, 13.5258], [100.4071, 13.5353], [100.4096, 13.5361], [100.4098, 13.5373], [100.416, 13.5398], [100.4191, 13.5431], [100.4195, 13.546], [100.4156, 13.5517], [100.415, 13.5563], [100.4, 13.5527], [100.394, 13.5567], [100.3909, 13.5685], [100.3863, 13.5752], [100.3866, 13.5774], [100.3852, 13.5804], [100.3855, 13.5858], [100.3844, 13.5888], [100.3789, 13.5944], [100.3794, 13.6094], [100.3787, 13.6165], [100.3774, 13.6208], [100.4468, 13.6826], [100.4486, 13.6816], [100.4487, 13.6753], [100.4516, 13.6754], [100.4506, 13.6613], [100.4647, 13.6557]]]]}}, {"type": "Feature", "properties": {"code": "1028", "name": "สาทร", "name_en": "Sathon"}, "geometry": {"type": "MultiPolygon", "coordinates": [[[[100.5375, 13.7071], [100.5287, 13.7059], [100.5302, 13.702], [100.5147, 13.7049], [100.5165, 13.7084], [100.5078, 13.712], [100.5121, 13.7194], [100.5152, 13.7186], [100.5302, 13.7219], [100.5446, 13.7263], [100.553, 13.7227], [100.5538, 13.7166], [100.5491, 13.7193], [100.5418, 13.7106], [100.5438, 13.707], [100.5375, 13.7071]]]]}}, {"type": "Feature", "properties": {"code": "1029", "name": "บางซื่อ", "name_en": "Bang Sue"}, "geometry": {"type": "MultiPolygon", "coordinates": [[[[100.5372, 13.8216], [100.5449, 13.8178], [100.5375, 13.7978], [100.5165, 13.8004], [100.5151, 13.8135], [100.5072, 13.816], [100.5065, 13.8172], [100.5071, 13.8196], [100.5066, 13.8213], [100.5087, 13.8235], [100.5134, 13.8251], [100.5134, 13.8256], [100.5438, 13.8499], [100.5372, 13.8216]]]]}}, {"type": "Feature", "properties": {"code": "1026", "name": "ดินแดง", "name_en": "Din Daeng"}, "geometry": {"type": "MultiPolygon", "coordinates": [[[[100.5748, 13.801], [100.5731, 13.7705], [100.5648, 13.7552], [100.5524, 13.756], [100.5432, 13.7628], [100.5482, 13.7639], [100.5613, 13.795], [100.5748, 13.801]]]]}}, {"type": "Feature", "properties": {"code": "1027", "name": "บึงกุ่ม", "name_en": "Bueng Kum"}, "geometry": {"type": "MultiPolygon", "coordinates": [[[[100.6497, 13.8463], [100.6486, 13.8339], [100.6573, 13.8356], [100.6616, 13.8309], [100.6629, 13.8102], [100.6735, 13.7964], [100.6752, 13.7811], [100.6562, 13.7706], [100.6482, 13.7847], [100.6427, 13.7869], [100.6313, 13.8192], [100.6236, 13.8172], [100.6363, 13.8441], [100.6497, 13.8463]]]]}}, {"type": "Feature", "properties": {"code": "1024", "name": "ราษฎร์บูรณะ", "name_en": "Rat Burana"}, "geometry": {"type": "MultiPolygon", "coordinates": [[[[100.5117, 13.6565], [100.5026, 13.6598], [100.4991, 13.6543], [100.4969, 13.659], [100.493, 13.6605], [100.4914, 13.6566], [100.4758, 13.6622], [100.4821, 13.6648], [100.4801, 13.6693], [100.4885, 13.6794], [100.4879, 13.6853], [100.4813, 13.6901], [100.4826, 13.6946], [100.49, 13.6949], [100.5003, 13.6868], [100.5062, 13.6857], [100.5176, 13.6823], [100.5213, 13.6797], [100.5169, 13.6724], [100.5167, 13.6695], [100.5169, 13.6685], [100.523, 13.6611], [100.5117, 13.6565]]]]}}, {"type": "Feature", "properties": {"code": "1025", "name": "บางพลัด", "name_en": "Bang Phlat"}, "geometry": {"type": "MultiPolygon", "coordinates": [[[[100.4911, 13.762], [100.4821, 13.7733], [100.4686, 13.7877], [100.466, 13.787], [100.4661, 13.7888], [100.4942, 13.7983], [100.5151, 13.8134], [100.5165, 13.8004], [100.5058, 13.7869], [100.5023, 13.7812], [100.4989, 13.7728], [100.4948, 13.7655], [100.4911, 13.762]]]]}}, {"type": "Feature", "properties": {"code": "1022", "name": "ภาษีเจริญ", "name_en": "Phasi Charoen"}, "geometry": {"type": "MultiPolygon", "coordinates": [[[[100.4601, 13.7131], [100.4553, 13.7119], [100.456, 13.7084], [100.4528, 13.7101], [100.4498, 13.7054], [100.4384, 13.7096], [100.4342, 13.6997], [100.4377, 13.6936], [100.4276, 13.6875], [100.4249, 13.7321], [100.4178, 13.7312], [100.4134, 13.7479], [100.4323, 13.7403], [100.4621, 13.7444], [100.4635, 13.7312], [100.4716, 13.7226], [100.4692, 13.7159], [100.4628, 13.7179], [100.4601, 13.7131]]]]}}, {"type": "Feature", "properties": {"code": "1023", "name": "หนองแขม", "name_en": "Nong Khaem"}, "geometry": {"type": "MultiPolygon", "coordinates": [[[[100.3773, 13.7006], [100.385, 13.6714], [100.3444, 13.6547], [100.3395, 13.6549], [100.3394, 13.6573], [100.3411, 13.66], [100.3412, 13.6615], [100.3385, 13.6727], [100.3338, 13.6809], [100.3319, 13.689], [100.3307, 13.6979], [100.3308, 13.6995], [100.3356, 13.7055], [100.3374, 13.7155], [100.3356, 13.7256], [100.3363, 13.7267], [100.3353, 13.7308], [100.3354, 13.7354], [100.3593, 13.738], [100.3773, 13.7006]]]]}}, {"type": "Feature", "properties": {"code": "1019", "name": "ตลิ่งชัน", "name_en": "Taling Chan"}, "geometry": {"type": "MultiPolygon", "coordinates": [[[[100.4569, 13.7435], [100.4323, 13.7403], [100.4134, 13.7479], [100.4059, 13.7494], [100.4063, 13.7587], [100.4108, 13.8016], [100.4642, 13.7972], [100.4696, 13.7946], [100.4656, 13.7895], [100.4661, 13.7888], [100.4668, 13.7813], [100.4674, 13.7797], [100.4569, 13.7764], [100.4535, 13.7659], [100.4621, 13.7444], [100.4569, 13.7435]]]]}}, {"type": "Feature", "properties": {"code": "1031", "name": "บางคอแหลม", "name_en": "Bang Kho Laem"}, "geometry": {"type": "MultiPolygon", "coordinates": [[[[100.5147, 13.7049], [100.5302, 13.702], [100.5314, 13.699], [100.5176, 13.6823], [100.5062, 13.6857], [100.5003, 13.6868], [100.49, 13.6949], [100.4987, 13.7052], [100.5078, 13.712], [100.5165, 13.7084], [100.5147, 13.7049]]]]}}, {"type": "Feature", "properties": {"code": "1032", "name": "ประเวศ", "name_en": "Prawet"}, "geometry": {"type": "MultiPolygon", "coordinates": [[[[100.71, 13.6951], [100.7094, 13.6908], [100.7054, 13.6802], [100.7038, 13.6728], [100.699, 13.6629], [100.6976, 13.6547], [100.6931, 13.6511], [100.6928, 13.6534], [100.6933, 13.6571], [100.6666, 13.6672], [100.6668, 13.6683], [100.6557, 13.6723], [100.6535, 13.6691], [100.6454, 13.6696], [100.6403, 13.6778], [100.6341, 13.7007], [100.6509, 13.703], [100.6498, 13.7289], [100.6591, 13.7382], [100.7083, 13.7319], [100.7099, 13.715], [100.7121, 13.7007], [100.7113, 13.6949], [100.71, 13.6951]]]]}}, {"type": "Feature", "properties": {"code": "1030", "name": "จตุจักร", "name_en": "Chatuchak"}, "geometry": {"type": "MultiPolygon", "coordinates": [[[[100.5898, 13.8438], [100.5906, 13.8352], [100.5883, 13.803], [100.5748, 13.801], [100.5613, 13.795], [100.5375, 13.7978], [100.5449, 13.8178], [100.5372, 13.8216], [100.5438, 13.8499], [100.5634, 13.8551], [100.5864, 13.8589], [100.5898, 13.8438]]]]}}, {"type": "Feature", "properties": {"code": "1039", "name": "วัฒนา", "name_en": "Watthana"}, "geometry": {"type": "MultiPolygon", "coordinates": [[[[100.6055, 13.7232], [100.6064, 13.7152], [100.6017, 13.712], [100.6058, 13.7066], [100.6016, 13.7047], [100.5845, 13.72], [100.5653, 13.7336], [100.5508, 13.7427], [100.5502, 13.7483], [100.5632, 13.7478], [100.5979, 13.7411], [100.6049, 13.7377], [100.6055, 13.7232]]]]}}, {"type": "Feature", "properties": {"code": "1037", "name": "ราชเทวี", "name_en": "Ratchathewi"}, "geometry": {"type": "MultiPolygon", "coordinates": [[[[100.541, 13.7494], [100.5253, 13.7493], [100.519, 13.7527], [100.5277, 13.7744], [100.5524, 13.756], [100.5648, 13.7552], [100.5632, 13.7478], [100.5502, 13.7483], [100.541, 13.7494]]]]}}, {"type": "Feature", "properties": {"code": "1038", "name": "ลาดพร้าว", "name_en": "Lat Phrao"}, "geometry": {"type": "MultiPolygon", "coordinates": [[[[100.6363, 13.8441], [100.6236, 13.8172], [100.612, 13.7949], [100.6057, 13.7952], [100.6026, 13.8003], [100.5884, 13.8028], [100.5906, 13.8352], [100.5898, 13.8438], [100.6189, 13.8485], [100.6287, 13.8427], [100.6363, 13.8441]]]]}}, {"type": "Feature", "properties": {"code": "1035", "name": "จอมทอง", "name_en": "Chom Thong"}, "geometry": {"type": "MultiPolygon", "coordinates": [[[[100.4879, 13.6853], [100.4885, 13.6794], [100.4801, 13.6693], [100.4821, 13.6648], [100.4758, 13.6622], [100.4647, 13.6557], [100.4506, 13.6613], [100.4516, 13.6754], [100.4487, 13.6753], [100.4486, 13.6816], [100.4468, 13.6826], [100.4377, 13.6936], [100.4342, 13.6997], [100.4384, 13.7096], [100.4498, 13.7054], [100.4528, 13.7101], [100.456, 13.7084], [100.4553, 13.7119], [100.4601, 13.7131], [100.4628, 13.7179], [100.4692, 13.7159], [100.4661, 13.7094], [100.477, 13.7088], [100.4826, 13.6946], [100.4813, 13.6901], [100.4879, 13.6853]]]]}}, {"type": "Feature", "properties": {"code": "1036", "name": "ดอนเมือง", "name_en": "Don Mueang"}, "geometry": {"type": "MultiPolygon", "coordinates": [[[[100.6082, 13.9425], [100.6069, 13.954], [100.6229, 13.948], [100.6235, 13.9473], [100.6253, 13.9366], [100.6232, 13.9205], [100.6087, 13.8958], [100.5947, 13.8877], [100.5828, 13.8907], [100.5876, 13.8994], [100.5591, 13.9145], [100.5678, 13.9512], [100.5766, 13.9545], [100.6082, 13.9425]]]]}}, {"type": "Feature", "properties": {"code": "1033", "name": "คลองเตย", "name_en": "Khlong Toei"}, "geometry": {"type": "MultiPolygon", "coordinates": [[[[100.6016, 13.7047], [100.5833, 13.6967], [100.5794, 13.6992], [100.5717, 13.7027], [100.555, 13.7059], [100.5508, 13.7427], [100.5653, 13.7336], [100.5845, 13.72], [100.6016, 13.7047]]]]}}, {"type": "Feature", "properties": {"code": "1034", "name": "สวนหลวง", "name_en": "Suan Luang"}, "geometry": {"type": "MultiPolygon", "coordinates": [[[[100.6591, 13.7384], [100.6498, 13.7289], [100.6509, 13.703], [100.6341, 13.7007], [100.6322, 13.7047], [100.6058, 13.7066], [100.6017, 13.712], [100.6064, 13.7152], [100.6049, 13.7377], [100.5979, 13.7411], [100.6011, 13.7481], [100.6109, 13.7437], [100.636, 13.75], [100.6591, 13.7384]]]]}}, {"type": "Feature", "properties": {"code": "1006", "name": "บางกะปิ", "name_en": "Bang Kapi"}, "geometry": {"type": "MultiPolygon", "coordinates": [[[[100.6664, 13.7469], [100.6591, 13.7384], [100.636, 13.75], [100.6109, 13.7437], [100.6011, 13.7481], [100.6153, 13.7611], [100.6305, 13.7631], [100.629, 13.7887], [100.6259, 13.7881], [100.6236, 13.8002], [100.6148, 13.7997], [100.6236, 13.8172], [100.6313, 13.8192], [100.6427, 13.7869], [100.6482, 13.7847], [100.6562, 13.7706], [100.6647, 13.7753], [100.6698, 13.7563], [100.679, 13.7518], [100.6664, 13.7469]]]]}}, {"type": "Feature", "properties": {"code": "1007", "name": "ปทุมวัน", "name_en": "Pathum Wan"}, "geometry": {"type": "MultiPolygon", "coordinates": [[[[100.5502, 13.7483], [100.553, 13.7227], [100.5157, 13.738], [100.5174, 13.7531], [100.5253, 13.7493], [100.541, 13.7494], [100.5502, 13.7483]]]]}}, {"type": "Feature", "properties": {"code": "1004", "name": "บางรัก", "name_en": "Bang Rak"}, "geometry": {"type": "MultiPolygon", "coordinates": [[[[100.5369, 13.7295], [100.5446, 13.7263], [100.5302, 13.7219], [100.5152, 13.7186], [100.5121, 13.7194], [100.5124, 13.7292], [100.5152, 13.7318], [100.5157, 13.738], [100.5369, 13.7295]]]]}}, {"type": "Feature", "properties": {"code": "1005", "name": "บางเขน", "name_en": "Bang Khen"}, "geometry": {"type": "MultiPolygon", "coordinates": [[[[100.6527, 13.8829], [100.6531, 13.8863], [100.6613, 13.8789], [100.6812, 13.8797], [100.6844, 13.8741], [100.6803, 13.8587], [100.6753, 13.8565], [100.6633, 13.8561], [100.6587, 13.8478], [100.6287, 13.8427], [100.6189, 13.8485], [100.5898, 13.8438], [100.5864, 13.8589], [100.5881, 13.8794], [100.5947, 13.8877], [100.6087, 13.8958], [100.6095, 13.8877], [100.6231, 13.883], [100.6402, 13.8867], [100.6527, 13.8829]]]]}}, {"type": "Feature", "properties": {"code": "1002", "name": "ดุสิต", "name_en": "Dusit"}, "geometry": {"type": "MultiPolygon", "coordinates": [[[[100.5208, 13.7571], [100.519, 13.7527], [100.5174, 13.7531], [100.5164, 13.7567], [100.5038, 13.7698], [100.4989, 13.7728], [100.5023, 13.7812], [100.5058, 13.7869], [100.5165, 13.8004], [100.5375, 13.7978], [100.5208, 13.7571]]]]}}, {"type": "Feature", "properties": {"code": "1003", "name": "หนองจอก", "name_en": "Nong Chok"}, "geometry": {"type": "MultiPolygon", "coordinates": [[[[100.8783, 13.7379], [100.8677, 13.7505], [100.8613, 13.77], [100.8426, 13.7709], [100.8375, 13.7676], [100.8322, 13.7675], [100.8148, 13.7842], [100.7939, 13.7838], [100.795, 13.794], [100.8077, 13.808], [100.8015, 13.8106], [100.8014, 13.8205], [100.806, 13.8262], [100.8084, 13.8534], [100.7995, 13.8494], [100.7883, 13.8803], [100.7958, 13.8902], [100.7928, 13.894], [100.7925, 13.9288], [100.8395, 13.9361], [100.9124, 13.9454], [100.9125, 13.936], [100.9081, 13.9014], [100.9061, 13.8803], [100.906, 13.8628], [100.9046, 13.8485], [100.9128, 13.8463], [100.9112, 13.845], [100.9073, 13.8385], [100.938, 13.8147], [100.9306, 13.8048], [100.9072, 13.7867], [100.8783, 13.7379]]]]}}, {"type": "Feature", "properties": {"code": "1001", "name": "พระนคร", "name_en": "Phra Nakhon"}, "geometry": {"type": "MultiPolygon", "coordinates": [[[[100.4999, 13.7387], [100.4935, 13.7408], [100.4919, 13.7424], [100.4883, 13.7483], [100.4894, 13.76], [100.4948, 13.7655], [100.4989, 13.7728], [100.5038, 13.7698], [100.5094, 13.7637], [100.5057, 13.7562], [100.5056, 13.7538], [100.5032, 13.7448], [100.4999, 13.7387]]]]}}, {"type": "Feature", "properties": {"code": "1010", "name": "มีนบุรี", "name_en": "Min Buri"}, "geometry": {"type": "MultiPolygon", "coordinates": [[[[100.7433, 13.8354], [100.7493, 13.822], [100.7995, 13.8494], [100.8084, 13.8534], [100.806, 13.8262], [100.8014, 13.8205], [100.8015, 13.8106], [100.8077, 13.808], [100.795, 13.794], [100.7885, 13.8004], [100.7826, 13.7988], [100.7828, 13.7818], [100.7687, 13.7823], [100.7603, 13.7761], [100.7464, 13.7775], [100.7464, 13.774], [100.7389, 13.7738], [100.7389, 13.7774], [100.7334, 13.7747], [100.7163, 13.7781], [100.705, 13.7975], [100.6967, 13.8154], [100.7155, 13.8219], [100.7147, 13.8305], [100.7202, 13.8305], [100.7202, 13.8365], [100.7224, 13.8309], [100.7297, 13.831], [100.7296, 13.8366], [100.7433, 13.8354]]]]}}, {"type": "Feature", "properties": {"code": "1017", "name": "ห้วยขวาง", "name_en": "Huai Khwang"}, "geometry": {"type": "MultiPolygon", "coordinates": [[[[100.6041, 13.751], [100.6011, 13.7481], [100.5979, 13.7411], [100.5632, 13.7478], [100.5648, 13.7552], [100.5731, 13.7705], [100.5748, 13.801], [100.5883, 13.803], [100.5947, 13.764], [100.6041, 13.751]]]]}}, {"type": "Feature", "properties": {"code": "1018", "name": "คลองสาน", "name_en": "Khlong San"}, "geometry": {"type": "MultiPolygon", "coordinates": [[[[100.4987, 13.7052], [100.493, 13.721], [100.4934, 13.727], [100.4961, 13.7349], [100.4985, 13.739], [100.5065, 13.737], [100.5093, 13.7354], [100.5124, 13.7292], [100.5121, 13.7194], [100.5078, 13.712], [100.4987, 13.7052]]]]}}, {"type": "Feature", "properties": {"code": "1015", "name": "ธนบุรี", "name_en": "Thon Buri"}, "geometry": {"type": "MultiPolygon", "coordinates": [[[[100.4987, 13.7052], [100.49, 13.6949], [100.4826, 13.6946], [100.477, 13.7088], [100.4661, 13.7094], [100.4716, 13.7226], [100.4786, 13.7228], [100.4856, 13.7276], [100.4877, 13.736], [100.4919, 13.7424], [100.4935, 13.7408], [100.4985, 13.739], [100.4961, 13.7349], [100.4934, 13.727], [100.493, 13.721], [100.4987, 13.7052]]]]}}, {"type": "Feature", "properties": {"code": "1016", "name": "บางกอกใหญ่", "name_en": "Bangkok Yai"}, "geometry": {"type": "MultiPolygon", "coordinates": [[[[100.4877, 13.736], [100.4856, 13.7276], [100.4786, 13.7228], [100.4716, 13.7226], [100.4635, 13.7312], [100.4621, 13.7444], [100.4705, 13.7432], [100.4883, 13.7483], [100.4919, 13.7424], [100.4877, 13.736]]]]}}, {"type": "Feature", "properties": {"code": "1013", "name": "สัมพันธวงศ์", "name_en": "Samphanthawong"}, "geometry": {"type": "MultiPolygon", "coordinates": [[[[100.5152, 13.7318], [100.5124, 13.7292], [100.5093, 13.7354], [100.5065, 13.737], [100.4999, 13.7387], [100.5039, 13.7468], [100.5157, 13.738], [100.5152, 13.7318]]]]}}, {"type": "Feature", "properties": {"code": "1014", "name": "พญาไท", "name_en": "Phaya Thai"}, "geometry": {"type": "MultiPolygon", "coordinates": [[[[100.5613, 13.795], [100.5482, 13.7639], [100.5432, 13.7628], [100.5277, 13.7744], [100.5375, 13.7978], [100.5613, 13.795]]]]}}, {"type": "Feature", "properties": {"code": "1011", "name": "ลาดกระบัง", "name_en": "Lat Krabang"}, "geometry": {"type": "MultiPolygon", "coordinates": [[[[100.8322, 13.7675], [100.8375, 13.7676], [100.8426, 13.7709], [100.8613, 13.77], [100.8677, 13.7505], [100.8783, 13.7379], [100.8557, 13.7004], [100.8311, 13.7057], [100.7879, 13.7164], [100.7479, 13.7163], [100.7097, 13.7179], [100.7083, 13.7308], [100.7098, 13.7565], [100.7066, 13.7568], [100.7163, 13.7781], [100.7334, 13.7747], [100.7389, 13.7774], [100.7389, 13.7738], [100.7464, 13.774], [100.7464, 13.7775], [100.7603, 13.7761], [100.7687, 13.7823], [100.7828, 13.7818], [100.7826, 13.7988], [100.7885, 13.8004], [100.795, 13.794], [100.7939, 13.7838], [100.8148, 13.7842], [100.8322, 13.7675]]]]}}, {"type": "Feature", "properties": {"code": "1012", "name": "ยานนาวา", "name_en": "Yan Nawa"}, "geometry": {"type": "MultiPolygon", "coordinates": [[[[100.5373, 13.6693], [100.5283, 13.6735], [100.5176, 13.6823], [100.5314, 13.699], [100.5287, 13.7059], [100.5375, 13.7071], [100.5438, 13.707], [100.5418, 13.7106], [100.5491, 13.7193], [100.5538, 13.7166], [100.555, 13.7059], [100.5512, 13.7018], [100.5507, 13.6996], [100.5526, 13.6879], [100.5513, 13.6795], [100.5499, 13.6758], [100.5464, 13.6716], [100.5373, 13.6693]]]]}}, {"type": "Feature", "properties": {"code": "1008", "name": "ป้อมปราบศัตรูพ่าย", "name_en": "Pom Prap Sattru Phai"}, "geometry": {"type": "MultiPolygon", "coordinates": [[[[100.5157, 13.738], [100.5039, 13.7468], [100.5057, 13.7562], [100.5094, 13.7637], [100.5164, 13.7567], [100.5174, 13.7531], [100.5157, 13.738]]]]}}, {"type": "Feature", "properties": {"code": "1009", "name": "พระโขนง", "name_en": "Phra Khanong"}, "geometry": {"type": "MultiPolygon", "coordinates": [[[[100.6322, 13.7047], [100.6341, 13.7007], [100.6403, 13.6778], [100.6259, 13.6783], [100.6244, 13.6845], [100.6003, 13.6799], [100.5888, 13.683], [100.5894, 13.6862], [100.588, 13.6907], [100.5833, 13.6967], [100.6058, 13.7066], [100.6322, 13.7047]]]]}}]}